STARLINK-4353           
1 53214U 22084AB  26068.74958008 -.00000005  00000+0  41667-5 0  9998
2 53214  97.6033 130.2603 0000849  92.4598 267.6723 15.01262056199323
HAWK-8A                 
1 59443U 24066B   26068.40724718  .00002325  00000+0  20899-3 0  9990
2 59443  45.5937  72.3645 0004214 254.4969 105.5447 14.98766556104869
